[{"OBJECT_NAME":"STARLINK-2483","OBJECT_ID":"2021-027BA","EPOCH":"2026-03-09T12:46:42.199968","MEAN_MOTION":15.30208756,"ECCENTRICITY":0.00012263,"INCLINATION":53.161,"RA_OF_ASC_NODE":166.3833,"ARG_OF_PERICENTER":92.9717,"MEAN_ANOMALY":267.1425,"EPHEMERIS_TYPE":0,"CLASSIFICATION_TYPE":"U","NORAD_CAT_ID":48140,"ELEMENT_SET_NO":999,"REV_AT_EPOCH":27248,"BSTAR":0.0001420962,"MEAN_MOTION_DOT":3.853e-5,"MEAN_MOTION_DDOT":0},{"OBJECT_NAME":"PEGASUS DEB","OBJECT_ID":"1994-029AG","EPOCH":"2026-03-09T11:16:42.963744","MEAN_MOTION":15.37636263,"ECCENTRICITY":0.0031206,"INCLINATION":82.0362,"RA_OF_ASC_NODE":86.2933,"ARG_OF_PERICENTER":155.6019,"MEAN_ANOMALY":204.671,"EPHEMERIS_TYPE":0,"CLASSIFICATION_TYPE":"U","NORAD_CAT_ID":23986,"ELEMENT_SET_NO":999,"REV_AT_EPOCH":61542,"BSTAR":0.00061808813,"MEAN_MOTION_DOT":0.00023279,"MEAN_MOTION_DDOT":0}]
